STARLINK-30092          
1 57467U 23107L   26068.08801585 -.00004529  00000+0 -15913-3 0  9992
2 57467  43.0022 339.6211 0002381 265.1319  94.9260 15.26757276145051
HAWK-11A                
1 62382U 24247F   26068.51231358  .00009457  00000+0  34106-3 0  9991
2 62382  44.9941 114.3328 0005466 327.3713  32.6832 15.28849427 67741
